[{"OBJECT_NAME":"STARLINK-30100","OBJECT_ID":"2023-119X","EPOCH":"2026-03-09T22:00:01.999584","MEAN_MOTION":15.17573098,"ECCENTRICITY":0.00019511,"INCLINATION":43.0003,"RA_OF_ASC_NODE":79.9179,"ARG_OF_PERICENTER":284.7245,"MEAN_ANOMALY":141.6693,"EPHEMERIS_TYPE":0,"CLASSIFICATION_TYPE":"U","NORAD_CAT_ID":57623,"ELEMENT_SET_NO":999,"REV_AT_EPOCH":573,"BSTAR":0.052332137,"MEAN_MOTION_DOT":0.01165297,"MEAN_MOTION_DDOT":0},{"OBJECT_NAME":"OBJECT B","OBJECT_ID":"2025-012B","EPOCH":"2026-03-09T17:03:25.729344","MEAN_MOTION":15.20202755,"ECCENTRICITY":0.00076819,"INCLINATION":97.4305,"RA_OF_ASC_NODE":143.2195,"ARG_OF_PERICENTER":262.0484,"MEAN_ANOMALY":97.9879,"EPHEMERIS_TYPE":0,"CLASSIFICATION_TYPE":"U","NORAD_CAT_ID":62726,"ELEMENT_SET_NO":999,"REV_AT_EPOCH":6313,"BSTAR":0.00027599398,"MEAN_MOTION_DOT":5.916e-5,"MEAN_MOTION_DDOT":0}]
